[{"OBJECT_NAME":"STARLINK-34746","OBJECT_ID":"2025-152F","EPOCH":"2026-03-09T14:13:47.414496","MEAN_MOTION":15.0564453,"ECCENTRICITY":0.0001778,"INCLINATION":97.6018,"RA_OF_ASC_NODE":285.425,"ARG_OF_PERICENTER":84.6912,"MEAN_ANOMALY":275.4518,"EPHEMERIS_TYPE":0,"CLASSIFICATION_TYPE":"U","NORAD_CAT_ID":64847,"ELEMENT_SET_NO":999,"REV_AT_EPOCH":3540,"BSTAR":0.00039503,"MEAN_MOTION_DOT":5.643e-5,"MEAN_MOTION_DDOT":0},{"OBJECT_NAME":"CZ-2C DEB","OBJECT_ID":"2009-061C","EPOCH":"2026-03-09T15:20:14.637120","MEAN_MOTION":14.99171478,"ECCENTRICITY":0.0032615,"INCLINATION":97.8461,"RA_OF_ASC_NODE":101.0533,"ARG_OF_PERICENTER":313.5449,"MEAN_ANOMALY":164.4427,"EPHEMERIS_TYPE":0,"CLASSIFICATION_TYPE":"U","NORAD_CAT_ID":36090,"ELEMENT_SET_NO":999,"REV_AT_EPOCH":86976,"BSTAR":0.0014405,"MEAN_MOTION_DOT":0.00017697,"MEAN_MOTION_DDOT":0}]
